{"type": "FeatureCollection", "features": [ {"type": "Feature", "properties": {"norad_id": 34141, "name": "COSMOS 2251 DEB", "group": "cosmos-2251-debris", "lat": 68.41646423654711, "lon": 52.835982941887664, "alt_km": 688.5503569668272, "timestamp": "2025-12-24T16:52:41.931254+00:00", "meta": {"OBJECT_NAME": "COSMOS 2251 DEB", "OBJECT_ID": "1993-036LN", "EPOCH": "2025-12-24T01:52:52.840704", "MEAN_MOTION": 14.49348832, "ECCENTRICITY": 0.00464892, "INCLINATION": 74.0112, "RA_OF_ASC_NODE": 7.5586, "ARG_OF_PERICENTER": 89.6823, "MEAN_ANOMALY": 326.7238, "EPHEMERIS_TYPE": 0, "CLASSIFICATION_TYPE": "U", "NORAD_CAT_ID": 34141, "ELEMENT_SET_NO": 999, "REV_AT_EPOCH": 87858, "BSTAR": 0.0013987353, "MEAN_MOTION_DOT": 5.394e-05, "MEAN_MOTION_DDOT": 0}, "tle": {"line1": "1 34141U 93036LN  25358.07838936  .00005394  00000+0  13987-2 0  9991", "line2": "2 34141  74.0112   7.5586 0046489  89.6823 326.7238 14.49348832878581"}}, "geometry": {"type": "Point", "coordinates": [52.835982941887664, 68.41646423654711]}}, {"type": "Feature", "properties": {"norad_id": 34270, "name": "COSMOS 2251 DEB", "group": "cosmos-2251-debris", "lat": -3.818261518864265, "lon": -77.52375727912856, "alt_km": 671.40568739028, "timestamp": "2025-12-24T16:52:41.931264+00:00", "meta": {"OBJECT_NAME": "COSMOS 2251 DEB", "OBJECT_ID": "1993-036LQ", "EPOCH": "2025-12-24T05:25:33.744864", "MEAN_MOTION": 14.65252074, "ECCENTRICITY": 0.00479921, "INCLINATION": 74.0116, "RA_OF_ASC_NODE": 284.4919, "ARG_OF_PERICENTER": 73.8217, "MEAN_ANOMALY": 286.8226, "EPHEMERIS_TYPE": 0, "CLASSIFICATION_TYPE": "U", "NORAD_CAT_ID": 34270, "ELEMENT_SET_NO": 999, "REV_AT_EPOCH": 89264, "BSTAR": 0.0007029354, "MEAN_MOTION_DOT": 3.823e-05, "MEAN_MOTION_DDOT": 0}, "tle": {"line1": "1 34270U 93036LQ  25358.22608501  .00003823  00000+0  70294-3 0  9994", "line2": "2 34270  74.0116 284.4919 0047992  73.8217 286.8226 14.65252074892642"}}, "geometry": {"type": "Point", "coordinates": [-77.52375727912856, -3.818261518864265]}}, {"type": "Feature", "properties": {"norad_id": 34271, "name": "COSMOS 2251 DEB", "group": "cosmos-2251-debris", "lat": -6.3814120625616155, "lon": -2.08432356915803, "alt_km": 651.8255797315014, "timestamp": "2025-12-24T16:52:41.931275+00:00", "meta": {"OBJECT_NAME": "COSMOS 2251 DEB", "OBJECT_ID": "1993-036LR", "EPOCH": "2025-12-23T18:54:03.787776", "MEAN_MOTION": 14.70993585, "ECCENTRICITY": 0.00182001, "INCLINATION": 74.0195, "RA_OF_ASC_NODE": 177.8583, "ARG_OF_PERICENTER": 231.0975, "MEAN_ANOMALY": 148.2753, "EPHEMERIS_TYPE": 0, "CLASSIFICATION_TYPE": "U", "NORAD_CAT_ID": 34271, "ELEMENT_SET_NO": 999, "REV_AT_EPOCH": 88397, "BSTAR": 0.0021218161, "MEAN_MOTION_DOT": 0.00013043, "MEAN_MOTION_DDOT": 0}, "tle": {"line1": "1 34271U 93036LR  25357.78754384  .00013043  00000+0  21218-2 0  9992", "line2": "2 34271  74.0195 177.8583 0018200 231.0975 148.2753 14.70993585883978"}}, "geometry": {"type": "Point", "coordinates": [-2.08432356915803, -6.3814120625616155]}}, {"type": "Feature", "properties": {"norad_id": 34273, "name": "COSMOS 2251 DEB", "group": "cosmos-2251-debris", "lat": 26.076966778623913, "lon": -123.5009748305592, "alt_km": 680.0773327961315, "timestamp": "2025-12-24T16:52:41.931286+00:00", "meta": {"OBJECT_NAME": "COSMOS 2251 DEB", "OBJECT_ID": "1993-036LT", "EPOCH": "2025-12-24T04:49:23.748384", "MEAN_MOTION": 14.61322238, "ECCENTRICITY": 0.00134439, "INCLINATION": 74.0358, "RA_OF_ASC_NODE": 65.5124, "ARG_OF_PERICENTER": 191.0233, "MEAN_ANOMALY": 200.3987, "EPHEMERIS_TYPE": 0, "CLASSIFICATION_TYPE": "U", "NORAD_CAT_ID": 34273, "ELEMENT_SET_NO": 999, "REV_AT_EPOCH": 88789, "BSTAR": 0.00091011467, "MEAN_MOTION_DOT": 4.475e-05, "MEAN_MOTION_DDOT": 0}, "tle": {"line1": "1 34273U 93036LT  25358.20096931  .00004475  00000+0  91011-3 0  9997", "line2": "2 34273  74.0358  65.5124 0013443 191.0233 200.3987 14.61322238887896"}}, "geometry": {"type": "Point", "coordinates": [-123.5009748305592, 26.076966778623913]}}, {"type": "Feature", "properties": {"norad_id": 34274, "name": "COSMOS 2251 DEB", "group": "cosmos-2251-debris", "lat": 27.369502888047805, "lon": 54.05637515085921, "alt_km": 690.5152120266566, "timestamp": "2025-12-24T16:52:41.931296+00:00", "meta": {"OBJECT_NAME": "COSMOS 2251 DEB", "OBJECT_ID": "1993-036LU", "EPOCH": "2025-12-24T03:46:33.625632", "MEAN_MOTION": 14.64904628, "ECCENTRICITY": 0.00213607, "INCLINATION": 74.0035, "RA_OF_ASC_NODE": 46.5676, "ARG_OF_PERICENTER": 195.5945, "MEAN_ANOMALY": 195.2716, "EPHEMERIS_TYPE": 0, "CLASSIFICATION_TYPE": "U", "NORAD_CAT_ID": 34274, "ELEMENT_SET_NO": 999, "REV_AT_EPOCH": 88843, "BSTAR": 0.0010235562, "MEAN_MOTION_DOT": 5.465e-05, "MEAN_MOTION_DDOT": 0}, "tle": {"line1": "1 34274U 93036LU  25358.15733363  .00005465  00000+0  10236-2 0  9998", "line2": "2 34274  74.0035  46.5676 0021360 195.5945 195.2716 14.64904628888431"}}, "geometry": {"type": "Point", "coordinates": [54.05637515085921, 27.369502888047805]}}, {"type": "Feature", "properties": {"norad_id": 34276, "name": "COSMOS 2251 DEB", "group": "cosmos-2251-debris", "lat": -0.008869036105879755, "lon": 62.57242026067073, "alt_km": 718.379364185982, "timestamp": "2025-12-24T16:52:41.931306+00:00", "meta": {"OBJECT_NAME": "COSMOS 2251 DEB", "OBJECT_ID": "1993-036LW", "EPOCH": "2025-12-24T03:49:33.682368", "MEAN_MOTION": 14.57298198, "ECCENTRICITY": 0.00221551, "INCLINATION": 74.0234, "RA_OF_ASC_NODE": 63.6086, "ARG_OF_PERICENTER": 209.2919, "MEAN_ANOMALY": 178.6994, "EPHEMERIS_TYPE": 0, "CLASSIFICATION_TYPE": "U", "NORAD_CAT_ID": 34276, "ELEMENT_SET_NO": 999, "REV_AT_EPOCH": 88759, "BSTAR": 0.00069477225, "MEAN_MOTION_DOT": 3.126e-05, "MEAN_MOTION_DDOT": 0}, "tle": {"line1": "1 34276U 93036LW  25358.15941762  .00003126  00000+0  69477-3 0  9998", "line2": "2 34276  74.0234  63.6086 0022155 209.2919 178.6994 14.57298198887595"}}, "geometry": {"type": "Point", "coordinates": [62.57242026067073, -0.008869036105879755]}}, {"type": "Feature", "properties": {"norad_id": 34297, "name": "COSMOS 2251 DEB", "group": "cosmos-2251-debris", "lat": -23.292917820836802, "lon": 89.3380622767398, "alt_km": 781.8855766804445, "timestamp": "2025-12-24T16:52:41.931317+00:00", "meta": {"OBJECT_NAME": "COSMOS 2251 DEB", "OBJECT_ID": "1993-036MT", "EPOCH": "2025-12-24T04:56:32.250912", "MEAN_MOTION": 14.36638771, "ECCENTRICITY": 0.00177143, "INCLINATION": 74.0486, "RA_OF_ASC_NODE": 263.1779, "ARG_OF_PERICENTER": 329.7849, "MEAN_ANOMALY": 183.4315, "EPHEMERIS_TYPE": 0, "CLASSIFICATION_TYPE": "U", "NORAD_CAT_ID": 34297, "ELEMENT_SET_NO": 999, "REV_AT_EPOCH": 88229, "BSTAR": 0.00013472354, "MEAN_MOTION_DOT": 3.71e-06, "MEAN_MOTION_DDOT": 0}, "tle": {"line1": "1 34297U 93036MT  25358.20592883  .00000371  00000+0  13472-3 0  9996", "line2": "2 34297  74.0486 263.1779 0017714 329.7849 183.4315 14.36638771882293"}}, "geometry": {"type": "Point", "coordinates": [89.3380622767398, -23.292917820836802]}}, {"type": "Feature", "properties": {"norad_id": 34301, "name": "COSMOS 2251 DEB", "group": "cosmos-2251-debris", "lat": 59.88816532759922, "lon": 172.5571938870438, "alt_km": 612.6121520486067, "timestamp": "2025-12-24T16:52:41.931334+00:00", "meta": {"OBJECT_NAME": "COSMOS 2251 DEB", "OBJECT_ID": "1993-036MX", "EPOCH": "2025-12-23T16:23:09.472992", "MEAN_MOTION": 14.85067679, "ECCENTRICITY": 0.00101357, "INCLINATION": 74.0056, "RA_OF_ASC_NODE": 144.9444, "ARG_OF_PERICENTER": 208.3899, "MEAN_ANOMALY": 162.1395, "EPHEMERIS_TYPE": 0, "CLASSIFICATION_TYPE": "U", "NORAD_CAT_ID": 34301, "ELEMENT_SET_NO": 999, "REV_AT_EPOCH": 88563, "BSTAR": 0.0033585593, "MEAN_MOTION_DOT": 0.00028812, "MEAN_MOTION_DDOT": 0}, "tle": {"line1": "1 34301U 93036MX  25357.68274853  .00028812  00000+0  33586-2 0  9994", "line2": "2 34301  74.0056 144.9444 0010135 208.3899 162.1395 14.85067679885634"}}, "geometry": {"type": "Point", "coordinates": [172.5571938870438, 59.88816532759922]}}, {"type": "Feature", "properties": {"norad_id": 34302, "name": "COSMOS 2251 DEB", "group": "cosmos-2251-debris", "lat": -3.49487039065207, "lon": 100.6961220210808, "alt_km": 721.8729063697128, "timestamp": "2025-12-24T16:52:41.931345+00:00", "meta": {"OBJECT_NAME": "COSMOS 2251 DEB", "OBJECT_ID": "1993-036MY", "EPOCH": "2025-12-24T02:06:45.596736", "MEAN_MOTION": 14.39371803, "ECCENTRICITY": 0.0079433, "INCLINATION": 74.1781, "RA_OF_ASC_NODE": 102.8139, "ARG_OF_PERICENTER": 314.8976, "MEAN_ANOMALY": 94.2776, "EPHEMERIS_TYPE": 0, "CLASSIFICATION_TYPE": "U", "NORAD_CAT_ID": 34302, "ELEMENT_SET_NO": 999, "REV_AT_EPOCH": 87884, "BSTAR": 0.00057380254, "MEAN_MOTION_DOT": 1.825e-05, "MEAN_MOTION_DDOT": 0}, "tle": {"line1": "1 34302U 93036MY  25358.08802774  .00001825  00000+0  57380-3 0  9993", "line2": "2 34302  74.1781 102.8139 0079433 314.8976  94.2776 14.39371803878849"}}, "geometry": {"type": "Point", "coordinates": [100.6961220210808, -3.49487039065207]}}, {"type": "Feature", "properties": {"norad_id": 34303, "name": "COSMOS 2251 DEB", "group": "cosmos-2251-debris", "lat": 62.304804183342256, "lon": 52.23846616720411, "alt_km": 673.5463057064471, "timestamp": "2025-12-24T16:52:41.931356+00:00", "meta": {"OBJECT_NAME": "COSMOS 2251 DEB", "OBJECT_ID": "1993-036MZ", "EPOCH": "2025-12-24T03:43:30.005760", "MEAN_MOTION": 14.54599842, "ECCENTRICITY": 0.01355796, "INCLINATION": 74.0053, "RA_OF_ASC_NODE": 266.4009, "ARG_OF_PERICENTER": 41.9062, "MEAN_ANOMALY": 80.7286, "EPHEMERIS_TYPE": 0, "CLASSIFICATION_TYPE": "U", "NORAD_CAT_ID": 34303, "ELEMENT_SET_NO": 999, "REV_AT_EPOCH": 88128, "BSTAR": 0.001546042, "MEAN_MOTION_DOT": 7.443e-05, "MEAN_MOTION_DDOT": 0}, "tle": {"line1": "1 34303U 93036MZ  25358.15520840  .00007443  00000+0  15460-2 0  9997", "line2": "2 34303  74.0053 266.4009 0135579  41.9062  80.7286 14.54599842881282"}}, "geometry": {"type": "Point", "coordinates": [52.23846616720411, 62.304804183342256]}}]}